IRIDIUM 159             
1 43578U 18061K   25189.45674214  .00000034  00000+0  50485-5 0  9994
2 43578  86.3979 200.3173 0002407  95.3344 264.8127 14.34217745364111
IRIDIUM 180             
1 43922U 19002A   25189.10739570  .00000008  00000+0 -40385-5 0  9992
2 43922  86.3998 137.4456 0002272  83.9325 276.2130 14.34217539339711
IRIDIUM 176             
1 43923U 19002B   25188.97051924  .00000663  00000+0  10117-3 0  9991
2 43923  86.6121 137.4939 0002884  74.1864 285.9671 14.72257411348608
IRIDIUM 168             
1 43924U 19002C   25189.10105225  .00000187  00000+0  59841-4 0  9991
2 43924  86.3999 137.5160 0002313  84.4764 275.6696 14.34218421339650
IRIDIUM 173             
1 43925U 19002D   25188.80929395 -.00000041  00000+0 -21785-4 0  9997
2 43925  86.3997 137.5408 0002330  81.5701 278.5759 14.34217222339595
IRIDIUM 169             
1 43926U 19002E   25188.67294482  .00000254  00000+0  76398-4 0  9999
2 43926  86.4256 169.1810 0002975  58.6361 301.5128 14.38612204340698
IRIDIUM 172             
1 43927U 19002F   25189.15179399  .00000010  00000+0 -35116-5 0  9998
2 43927  86.3995 137.4044 0002524  87.8896 272.2589 14.34217698339655
IRIDIUM 175             
1 43928U 19002G   25188.82958643  .00000688  00000+0  10516-3 0  9994
2 43928  86.1494  88.8929 0001641  69.3535 290.7857 14.72241651348575
